[Satellite]
VERSION=1.1
NAME=COSMOS 2464 (736)
NICKNAME=COSMOS 2464 (736)
TLE1=1 37139U 10041C   22342.31768847  .00000041  00000+0  00000+0 0  9999
TLE2=2 37139  63.9590 234.4849 0030345  10.6946 180.1622  2.13100927 95450
STATUS=0
